OBJECT_NAME,OBJECT_ID,EPOCH,MEAN_MOTION,ECCENTRICITY,INCLINATION,RA_OF_ASC_NODE,ARG_OF_PERICENTER,MEAN_ANOMALY,EPHEMERIS_TYPE,CLASSIFICATION_TYPE,NORAD_CAT_ID,ELEMENT_SET_NO,REV_AT_EPOCH,BSTAR,MEAN_MOTION_DOT,MEAN_MOTION_DDOT
QB50P1,2014-033R,2026-07-02T18:26:57.033024,15.18500631,.0009438,98.0961,196.0094,162.0321,198.1247,0,U,40025,999,65539,.46935E-3,.962E-4,0
DTUSAT-2,2014-033W,2026-07-01T23:10:26.577696,15.15204645,.00082038,98.0860,181.6327,172.2112,187.9248,0,U,40030,999,65492,.44129582E-3,.8222E-4,0
QB50P2,2014-033Y,2026-07-02T18:01:13.897056,15.15363125,.0009163,98.0751,181.6017,118.5652,241.6502,0,U,40032,999,65502,.45245E-3,.8472E-4,0
PERSEUS-M1,2014-033AF,2026-07-02T13:22:32.010816,14.95683129,.0010124,97.9648,127.9422,243.6906,116.3274,0,U,40039,999,65293,.13352E-3,.1426E-4,0
POLYITAN-1,2014-033AJ,2026-07-01T19:10:51.813120,15.33780662,.00087487,98.0933,210.4473,101.4445,258.7779,0,U,40042,999,65583,.71283433E-3,.2327E-3,0
TIGRISAT,2014-033AK,2026-07-02T09:49:36.429888,14.85217170,.0049718,97.7850,333.0739,26.2474,334.1244,0,U,40043,999,64788,.23566E-3,.201E-4,0
CANX-4,2014-034C,2026-07-02T14:53:59.623872,14.81292976,.0012018,98.3101,59.4991,327.0410,33.0051,0,U,40055,999,64681,.1454E-3,.1078E-4,0
CANX-5,2014-034D,2026-07-02T14:51:28.702080,14.81310317,.0012021,98.3103,59.5418,327.2625,32.7840,0,U,40056,999,63762,.14587E-3,.1082E-4,0
GONETS-M 10,2014-036C,2026-07-02T18:23:59.214912,12.42946156,.0022989,82.5129,297.9973,108.1673,252.1912,0,U,40063,999,54418,.56293E-3,.88E-6,0
METEOR-M 2,2014-037A,2026-07-02T18:31:55.140672,14.21466066,.0005919,98.5120,158.9591,4.1216,356.0010,0,U,40069,999,62153,.10646E-3,.191E-5,0
DX1,2014-037C,2026-07-02T17:45:20.310624,14.90032763,.0005974,98.3878,146.3866,212.7231,147.3616,0,U,40071,999,64842,.15809E-3,.1463E-4,0
UKUBE-1,2014-037F,2026-07-02T05:46:09.738336,15.13782027,.0003152,98.4235,188.0961,109.2963,250.8606,0,U,40074,999,65083,.53119E-3,.9513E-4,0
GAOFEN-2,2014-049A,2026-07-02T18:49:32.433888,14.80913291,.0007246,98.0104,247.9763,171.9132,188.2198,0,U,40118,999,64154,.20803E-4,.107E-5,0
BRITE-PL2 (HEWELIUSZ),2014-049B,2026-07-02T13:41:19.948992,14.94649737,.0015079,97.9112,295.6901,61.6638,298.6101,0,U,40119,999,64374,.18404E-3,.1939E-4,0
CBERS 4,2014-079A,2026-07-02T18:57:21.299040,14.35512802,.000132,98.3524,240.1315,51.2104,308.9200,0,U,40336,999,60619,.41825E-5,-.3E-6,0
SMAP,2015-003A,2026-07-02T17:42:43.956864,14.63380634,.0001484,98.1277,190.6122,97.6036,262.5335,0,U,40376,999,60989,.10883E-3,.516E-5,0
GONETS-M 11,2015-020A,2026-07-02T18:51:40.373280,12.42877822,.0015856,82.4856,21.2699,331.7782,28.2437,0,U,40552,999,51067,-.33504E-3,-.37E-6,0
GONETS-M 12,2015-020B,2026-07-02T18:13:15.342240,12.42891777,.0014606,82.4889,22.4145,316.3135,43.6788,0,U,40553,999,51066,.14408E-3,.3E-6,0
GONETS-M 13,2015-020C,2026-07-02T19:31:21.660960,12.42871439,.0012997,82.4851,20.9911,300.5645,59.4152,0,U,40554,999,51064,-.34701E-4,.5E-7,0
DMC3-FM1,2015-032A,2026-07-02T18:18:15.384384,14.85754000,.0006042,97.6440,48.3254,17.1180,343.0238,0,U,40715,999,59222,.39837E-4,.295E-5,0
DMC3-FM2,2015-032B,2026-07-02T18:49:55.353216,14.85762195,.0006674,97.6493,49.9309,21.4531,338.6963,0,U,40716,999,59222,.11547E-3,.952E-5,0
DMC3-FM3,2015-032C,2026-07-02T19:23:40.189056,14.85753631,.0005944,97.6546,51.7170,23.6691,336.4797,0,U,40717,999,59223,.13543E-3,.1125E-4,0
CARBONITE 1 (CBNT-1),2015-032D,2026-07-02T18:17:36.763584,14.83634002,.0013034,97.6508,1.1766,241.4631,118.5272,0,U,40718,999,59165,.20521E-3,.1644E-4,0
LILACSAT-2,2015-049K,2026-07-02T17:59:10.091040,15.51967479,.0007186,97.4623,221.1860,180.6292,179.4952,0,U,40908,999,59816,.3084E-3,.18467E-3,0
COSMOS 2507 (RODNIK-S 13),2015-050A,2026-07-02T18:25:24.929760,12.42927260,.0009484,82.4920,69.9699,322.6598,37.3822,0,U,40920,999,48879,.57437E-3,.89E-6,0
COSMOS 2508 (RODNIK-S 14),2015-050B,2026-07-02T17:20:51.571104,12.42915108,.0014524,82.4872,68.4968,354.3081,5.7831,0,U,40921,999,48877,.12079E-2,.177E-5,0
COSMOS 2509 (RODNIK-S 15),2015-050C,2026-07-02T17:50:41.906112,12.42884427,.0015193,82.4880,68.5880,10.9063,349.2343,0,U,40922,999,48881,.90456E-3,.135E-5,0
