[{"name":"BRITE-PL2 (HEWELIUSZ)","l1":"1 40119U 14049B   26183.57036978  .00001939  00000+0  18404-3 0  9999","l2":"2 40119  97.9112 295.6901 0015079  61.6638 298.6101 14.94649737643745","cat":"science"},{"name":"QB50P1","l1":"1 40025U 14033R   26183.76871566  .00009620  00000+0  46935-3 0  9994","l2":"2 40025  98.0961 196.0094 0009438 162.0321 198.1247 15.18500631655394","cat":"other"},{"name":"DTUSAT-2","l1":"1 40030U 14033W   26182.96558539  .00008222  00000+0  44130-3 0  9995","l2":"2 40030  98.0860 181.6327 0008203 172.2112 187.9248 15.15204645654925","cat":"other"},{"name":"QB50P2","l1":"1 40032U 14033Y   26183.75085529  .00008472  00000+0  45245-3 0  9994","l2":"2 40032  98.0751 181.6017 0009163 118.5652 241.6502 15.15363125655022","cat":"other"},{"name":"PERSEUS-M1","l1":"1 40039U 14033AF  26183.55731494  .00001426  00000+0  13352-3 0  9994","l2":"2 40039  97.9648 127.9422 0010124 243.6906 116.3274 14.95683129652933","cat":"other"},{"name":"POLYITAN-1","l1":"1 40042U 14033AJ  26182.79921080  .00023270  00000+0  71283-3 0  9993","l2":"2 40042  98.0933 210.4473 0008748 101.4445 258.7779 15.33780662655834","cat":"other"},{"name":"TIGRISAT","l1":"1 40043U 14033AK  26183.40944942  .00002010  00000+0  23566-3 0  9995","l2":"2 40043  97.7850 333.0739 0049718  26.2474 334.1244 14.85217170647881","cat":"other"},{"name":"CANX-4","l1":"1 40055U 14034C   26183.62082898  .00001078  00000+0  14540-3 0  9991","l2":"2 40055  98.3101  59.4991 0012018 327.0410  33.0051 14.81292976646810","cat":"other"},{"name":"CANX-5","l1":"1 40056U 14034D   26183.61908220  .00001082  00000+0  14587-3 0  9993","l2":"2 40056  98.3103  59.5418 0012021 327.2625  32.7840 14.81310317637623","cat":"other"},{"name":"GONETS-M 10","l1":"1 40063U 14036C   26183.76665758  .00000088  00000+0  56293-3 0  9990","l2":"2 40063  82.5129 297.9973 0022989 108.1673 252.1912 12.42946156544188","cat":"communications"},{"name":"METEOR-M 2","l1":"1 40069U 14037A   26183.77216598  .00000191  00000+0  10646-3 0  9999","l2":"2 40069  98.5120 158.9591 0005919   4.1216 356.0010 14.21466066621530","cat":"science"},{"name":"DX1","l1":"1 40071U 14037C   26183.73981841  .00001463  00000+0  15809-3 0  9997","l2":"2 40071  98.3878 146.3866 0005974 212.7231 147.3616 14.90032763648421","cat":"other"},{"name":"UKUBE-1","l1":"1 40074U 14037F   26183.24039049  .00009513  00000+0  53119-3 0  9990","l2":"2 40074  98.4235 188.0961 0003152 109.2963 250.8606 15.13782027650837","cat":"other"},{"name":"GAOFEN-2","l1":"1 40118U 14049A   26183.78440317  .00000107  00000+0  20803-4 0  9990","l2":"2 40118  98.0104 247.9763 0007246 171.9132 188.2198 14.80913291641544","cat":"other"},{"name":"CBERS 4","l1":"1 40336U 14079A   26183.78982985 -.00000030  00000+0  41825-5 0  9991","l2":"2 40336  98.3524 240.1315 0001320  51.2104 308.9200 14.35512802606199","cat":"science"},{"name":"SMAP","l1":"1 40376U 15003A   26183.73800876  .00000516  00000+0  10883-3 0  9992","l2":"2 40376  98.1277 190.6122 0001484  97.6036 262.5335 14.63380634609891","cat":"other"},{"name":"GONETS-M 11","l1":"1 40552U 15020A   26183.78588395 -.00000037  00000+0 -33504-3 0  9996","l2":"2 40552  82.4856  21.2699 0015856 331.7782  28.2437 12.42877822510674","cat":"communications"},{"name":"GONETS-M 12","l1":"1 40553U 15020B   26183.75920535  .00000030  00000+0  14408-3 0  9993","l2":"2 40553  82.4889  22.4145 0014606 316.3135  43.6788 12.42891777510667","cat":"communications"},{"name":"GONETS-M 13","l1":"1 40554U 15020C   26183.81344515  .00000005  00000+0 -34701-4 0  9991","l2":"2 40554  82.4851  20.9911 0012997 300.5645  59.4152 12.42871439510644","cat":"communications"},{"name":"DMC3-FM1","l1":"1 40715U 15032A   26183.76267806  .00000295  00000+0  39837-4 0  9999","l2":"2 40715  97.6440  48.3254 0006042  17.1180 343.0238 14.85754000592222","cat":"other"},{"name":"DMC3-FM2","l1":"1 40716U 15032B   26183.78466844  .00000952  00000+0  11547-3 0  9992","l2":"2 40716  97.6493  49.9309 0006674  21.4531 338.6963 14.85762195592227","cat":"other"},{"name":"DMC3-FM3","l1":"1 40717U 15032C   26183.80810404  .00001125  00000+0  13543-3 0  9992","l2":"2 40717  97.6546  51.7170 0005944  23.6691 336.4797 14.85753631592231","cat":"other"},{"name":"CARBONITE 1 (CBNT-1)","l1":"1 40718U 15032D   26183.76223106  .00001644  00000+0  20521-3 0  9995","l2":"2 40718  97.6508   1.1766 0013034 241.4631 118.5272 14.83634002591653","cat":"other"},{"name":"LILACSAT-2","l1":"1 40908U 15049K   26183.74942235  .00018467  00000+0  30840-3 0  9999","l2":"2 40908  97.4623 221.1860 0007186 180.6292 179.4952 15.51967479598164","cat":"other"},{"name":"COSMOS 2507 (RODNIK-S *)","l1":"1 40920U 15050A   26183.76764965  .00000089  00000+0  57437-3 0  9991","l2":"2 40920  82.4920  69.9699 0009484 322.6598  37.3822 12.42927260488796","cat":"other"},{"name":"COSMOS 2508 (RODNIK-S *)","l1":"1 40921U 15050B   26183.72281911  .00000177  00000+0  12079-2 0  9993","l2":"2 40921  82.4872  68.4968 0014524 354.3081   5.7831 12.42915108488771","cat":"other"},{"name":"COSMOS 2509 (RODNIK-S *)","l1":"1 40922U 15050C   26183.74354058  .00000135  00000+0  90456-3 0  9999","l2":"2 40922  82.4880  68.5880 0015193  10.9063 349.2343 12.42884427488811","cat":"other"}]